QIANFAN-148             
1 69107U 26108D   26162.10318154 -.01986784  00000+0 -12123+1 0  9993
2 69107  89.0106  22.8918 0021964 124.6833 235.6425 14.09951954  3487
QIANFAN-149             
1 69108U 26108E   26161.88730905 -.01950880  00000+0 -11819+1 0  9999
2 69108  89.0110  22.9158 0020059 120.5360 239.7807 14.10296083  3457
QIANFAN-150             
1 69109U 26108F   26162.08838460 -.01855896  00000+0 -11095+1 0  9995
2 69109  89.0114  22.8907 0021758 129.4585 230.8529 14.10809595  3481
QIANFAN-151             
1 69110U 26108G   26161.87084647 -.01986342  00000+0 -11841+1 0  9993
2 69110  89.0113  22.9133 0012747 124.6664 235.5724 14.11314598  3458
QIANFAN-152             
1 69111U 26108H   26162.07536938 -.01850887  00000+0 -10968+1 0  9995
2 69111  89.0110  22.8880 0021194 129.4048 230.9018 14.11288236  3486
QIANFAN-153             
1 69112U 26108J   26162.07110789  .00000233  00000+0  11128-3 0  9999
2 69112  89.0112  22.8870 0016761 134.2421 226.0146 14.15800596  3482
QIANFAN-154             
1 69113U 26108K   26161.99184272 -.01963526  00000+0 -11519+1 0  9995
2 69113  89.0107  22.8964 0020211 126.2074 234.0984 14.12076937  3470
QIANFAN-155             
1 69114U 26108L   26162.06706435 -.01974101  00000+0 -11736+1 0  9998
2 69114  89.0108  22.8889 0020791 119.9828 240.3425 14.11368517  3485
QIANFAN-156             
1 69115U 26108M   26162.12626515 -.02061588  00000+0 -11797+1 0  9990
2 69115  89.0116  22.8789 0016638 132.6904 227.5687 14.13665905  3497
QIANFAN-157             
1 69116U 26108N   26162.09624212 -.01780008  00000+0 -10193+1 0  9992
2 69116  89.0107  22.8730 0019009 139.3056 220.9555 14.13675684  3497
QIANFAN-158             
1 69117U 26108P   26162.11584023 -.01826415  00000+0 -10303+1 0  9997
2 69117  89.0112  22.8759 0017848 134.9634 225.3003 14.13954652  3499
QIANFAN-159             
1 69118U 26108Q   26161.89933661 -.01980113  00000+0 -10941+1 0  9992
2 69118  89.0103  22.8993 0016278 148.8200 211.3956 14.15400239  3467
QIANFAN-160             
1 69119U 26108R   26162.10700028 -.01970187  00000+0 -11098+1 0  9991
2 69119  89.0108  22.8752 0015362 137.7865 222.4508 14.14344794  3494
QIANFAN-161             
1 69120U 26108S   26162.10126960 -.01761775  00000+0 -98525+0 0  9990
2 69120  89.0113  22.8745 0015199 139.3371 220.8955 14.14948497  3490
QIANFAN-162             
1 69121U 26108T   26162.09813375 -.01922774  00000+0 -10578+1 0  9993
2 69121  89.0109  22.8736 0014297 145.7289 214.4824 14.15536716  3495
SMILE                   
1 69123U 26109A   26144.65318427 -.00001976  00000+0 -42379-3 0  9994
2 69123  70.0007 229.2745 0009123 259.5159 100.4951 14.57062785   802
STARLINK-37726          
1 69124U 26110A   26162.22611734  .00032406  00000+0  59462-3 0  9998
2 69124  97.2849 358.3893 0001517  90.3740 269.7685 15.49209104  4674
STARLINK-37722          
1 69125U 26110B   26162.25002315 -.00007818  00000+0 -14214-3 0  9998
2 69125  97.2849 358.5755 0001631  63.6285  88.6747 15.49205956  4755
STARLINK-37715          
1 69126U 26110C   26162.25002315 -.02497928  00000+0 -52701-1 0  9997
2 69126  97.2842 358.6703 0001699 104.0603 261.8968 15.48675213  4702
STARLINK-37706          
1 69127U 26110D   26162.25002315 -.02500182  00000+0 -52093-1 0  9999
2 69127  97.2837 358.6759 0001676 103.1826 274.2704 15.49033826  4705
STARLINK-37723          
1 69128U 26110E   26162.25002315 -.02485569  00000+0 -51211-1 0  9992
2 69128  97.2842 358.6812 0001437  92.8616 296.7977 15.49332747  4703
STARLINK-37720          
1 69129U 26110F   26162.28192628  .00037513  00000+0  68745-3 0  9993
2 69129  97.2854 358.4663 0001308  91.0922 269.0480 15.49217009  4689
STARLINK-37533          
1 69130U 26110G   26162.25002315 -.02502575  00000+0 -49685-1 0  9994
2 69130  97.2847 358.6953 0001623  83.0590 340.4526 15.50399518  4705
STARLINK-37530          
1 69131U 26110H   26162.25002315 -.02520569  00000+0 -49484-1 0  9995
2 69131  97.2841 358.7015 0001582  85.1111 349.8953 15.50739809  4704
STARLINK-37660          
1 69132U 26110J   26162.25002315  .00013132  00000+0  24280-3 0  9994
2 69132  97.2847 358.6104 0000922 105.8434 130.7130 15.49178590  4700
STARLINK-37633          
1 69133U 26110K   26162.25002315  .00006042  00000+0  11272-3 0  9994
2 69133  97.2844 358.6245 0001186 117.7584 149.7994 15.49174870  4700
STARLINK-37361          
1 69134U 26110L   26162.25002315 -.02538104  00000+0 -47993-1 0  9995
2 69134  97.2853 358.7150 0001692  78.3755  29.4916 15.51809995  4705
STARLINK-37372          
1 69135U 26110M   26162.25002315  .00005667  00000+0  10580-3 0  9999
2 69135  97.2843 358.6338 0001299 102.6814 184.1724 15.49185866  4709
STARLINK-37531          
1 69136U 26110N   26162.25002315 -.02514916  00000+0 -45487-1 0  9998
2 69136  97.2849 358.7007 0001924  64.9846  12.4970 15.53004408  4703
