OBJECT_NAME,OBJECT_ID,EPOCH,MEAN_MOTION,ECCENTRICITY,INCLINATION,RA_OF_ASC_NODE,ARG_OF_PERICENTER,MEAN_ANOMALY,EPHEMERIS_TYPE,CLASSIFICATION_TYPE,NORAD_CAT_ID,ELEMENT_SET_NO,REV_AT_EPOCH,BSTAR,MEAN_MOTION_DOT,MEAN_MOTION_DDOT
QIANFAN-148,2026-108D,2026-06-11T02:28:34.885056,14.09951954,.00219648,89.0106,22.8918,124.6833,235.6425,0,U,69107,999,348,-.12123465E+1,-.1986784E-1,0
QIANFAN-149,2026-108E,2026-06-10T21:17:43.501920,14.10296083,.00200594,89.0110,22.9158,120.5360,239.7807,0,U,69108,999,345,-.11818549E+1,-.195088E-1,0
QIANFAN-150,2026-108F,2026-06-11T02:07:16.429440,14.10809595,.00217582,89.0114,22.8907,129.4585,230.8529,0,U,69109,999,348,-.11095209E+1,-.1855896E-1,0
QIANFAN-151,2026-108G,2026-06-10T20:54:01.135008,14.11314598,.00127477,89.0113,22.9133,124.6664,235.5724,0,U,69110,999,345,-.11840617E+1,-.1986342E-1,0
QIANFAN-152,2026-108H,2026-06-11T01:48:31.914432,14.11288236,.00211948,89.0110,22.8880,129.4048,230.9018,0,U,69111,999,348,-.10968021E+1,-.1850887E-1,0
QIANFAN-153,2026-108J,2026-06-11T01:42:23.721696,14.15800596,.00167615,89.0112,22.8870,134.2421,226.0146,0,U,69112,999,348,.11127594E-3,.233E-5,0
QIANFAN-154,2026-108K,2026-06-10T23:48:15.211008,14.12076937,.00202111,89.0107,22.8964,126.2074,234.0984,0,U,69113,999,347,-.11519222E+1,-.1963526E-1,0
QIANFAN-155,2026-108L,2026-06-11T01:36:34.359840,14.11368517,.00207919,89.0108,22.8889,119.9828,240.3425,0,U,69114,999,348,-.11735793E+1,-.1974101E-1,0
QIANFAN-156,2026-108M,2026-06-11T03:01:49.308960,14.13665905,.00166384,89.0116,22.8789,132.6904,227.5687,0,U,69115,999,349,-.11797454E+1,-.2061588E-1,0
QIANFAN-157,2026-108N,2026-06-11T02:18:35.319168,14.13675684,.00190098,89.0107,22.8730,139.3056,220.9555,0,U,69116,999,349,-.10192675E+1,-.1780008E-1,0
QIANFAN-158,2026-108P,2026-06-11T02:46:48.595872,14.13954652,.00178481,89.0112,22.8759,134.9634,225.3003,0,U,69117,999,349,-.10302501E+1,-.1826415E-1,0
QIANFAN-159,2026-108Q,2026-06-10T21:35:02.683104,14.15400239,.00162787,89.0103,22.8993,148.8200,211.3956,0,U,69118,999,346,-.10941197E+1,-.1980113E-1,0
QIANFAN-160,2026-108R,2026-06-11T02:34:04.824192,14.14344794,.00153627,89.0108,22.8752,137.7865,222.4508,0,U,69119,999,349,-.11098103E+1,-.1970187E-1,0
QIANFAN-161,2026-108S,2026-06-11T02:25:49.693440,14.14948497,.00151994,89.0113,22.8745,139.3371,220.8955,0,U,69120,999,349,-.98525048E+0,-.1761775E-1,0
QIANFAN-162,2026-108T,2026-06-11T02:21:18.756000,14.15536716,.00142974,89.0109,22.8736,145.7289,214.4824,0,U,69121,999,349,-.10577684E+1,-.1922774E-1,0
SMILE,2026-109A,2026-05-24T15:40:35.120928,14.57062785,.00091232,70.0007,229.2745,259.5159,100.4951,0,U,69123,999,80,-.42378883E-3,-.1976E-4,0
STARLINK-37726,2026-110A,2026-06-11T05:25:36.538176,15.49209104,.00015172,97.2849,358.3893,90.3740,269.7685,0,U,69124,999,467,.59462479E-3,.32406E-3,0
STARLINK-37722,2026-110B,2026-06-11T06:00:02.000160,15.49205956,.00016318,97.2849,358.5755,63.6285,88.6747,0,U,69125,999,475,-.1421364E-3,-.7818E-4,0
STARLINK-37715,2026-110C,2026-06-11T06:00:02.000160,15.48675213,.00016992,97.2842,358.6703,104.0603,261.8968,0,U,69126,999,470,-.52700844E-1,-.2497928E-1,0
STARLINK-37706,2026-110D,2026-06-11T06:00:02.000160,15.49033826,.00016769,97.2837,358.6759,103.1826,274.2704,0,U,69127,999,470,-.52092561E-1,-.2500182E-1,0
STARLINK-37723,2026-110E,2026-06-11T06:00:02.000160,15.49332747,.00014372,97.2842,358.6812,92.8616,296.7977,0,U,69128,999,470,-.51210679E-1,-.2485569E-1,0
STARLINK-37720,2026-110F,2026-06-11T06:45:58.430592,15.49217009,.00013089,97.2854,358.4663,91.0922,269.0480,0,U,69129,999,468,.68745277E-3,.37513E-3,0
STARLINK-37533,2026-110G,2026-06-11T06:00:02.000160,15.50399518,.00016235,97.2847,358.6953,83.0590,340.4526,0,U,69130,999,470,-.49685162E-1,-.2502575E-1,0
STARLINK-37530,2026-110H,2026-06-11T06:00:02.000160,15.50739809,.00015829,97.2841,358.7015,85.1111,349.8953,0,U,69131,999,470,-.49484306E-1,-.2520569E-1,0
STARLINK-37660,2026-110J,2026-06-11T06:00:02.000160,15.49178590,.00009229,97.2847,358.6104,105.8434,130.7130,0,U,69132,999,470,.2427966E-3,.13132E-3,0
STARLINK-37633,2026-110K,2026-06-11T06:00:02.000160,15.49174870,.00011864,97.2844,358.6245,117.7584,149.7994,0,U,69133,999,470,.1127247E-3,.6042E-4,0
STARLINK-37361,2026-110L,2026-06-11T06:00:02.000160,15.51809995,.00016925,97.2853,358.7150,78.3755,29.4916,0,U,69134,999,470,-.47993079E-1,-.2538104E-1,0
STARLINK-37372,2026-110M,2026-06-11T06:00:02.000160,15.49185866,.00012995,97.2843,358.6338,102.6814,184.1724,0,U,69135,999,470,.10580246E-3,.5667E-4,0
STARLINK-37531,2026-110N,2026-06-11T06:00:02.000160,15.53004408,.00019243,97.2849,358.7007,64.9846,12.4970,0,U,69136,999,470,-.45487416E-1,-.2514916E-1,0
